0 OPS 1509 (TRANSIT 10)
1 01864U 65109A   13282.46875891  .00000134  00000-0  11631-3 0  1528
2 01864 089.0763 329.5310 0110768 210.9140 285.1358 13.77766145398264
0 OPS 1509 (TRANSIT 10)
1 01864U 65109A   13283.70641764  .00000136  00000-0  11850-3 0  1532
2 01864 089.0761 329.4101 0110890 207.1566 303.8804 13.77766378398436
0 OPS 1509 (TRANSIT 10)
1 01864U 65109A   13285.73747705  .00000161  00000-0  14180-3 0  1558
2 01864 089.0757 329.2118 0111115 200.9970 297.8640 13.77766739398710
0 OPS 1509 (TRANSIT 10)
1 01864U 65109A   13286.75286346  .00000168  00000-0  14826-3 0  1565
2 01864 089.0753 329.1126 0111228 197.9185 294.1443 13.77767097398856
0 OPS 1509 (TRANSIT 10)
1 01864U 65109A   13287.77083109  .00000172  00000-0  15204-3 0  1577
2 01864 089.0750 329.0132 0111337 194.8409 303.2196 13.77767600398997
0 OPS 1509 (TRANSIT 10)
1 01864U 65109A   13289.13361101  .00000164  00000-0  14441-3 0  1584
2 01864 089.0747 328.8798 0111484 190.7398 222.5330 13.77768215399181
0 OPS 1509 (TRANSIT 10)
1 01864U 65109A   13290.52656321  .00000151  00000-0  13190-3 0  1597
2 01864 089.0745 328.7435 0111627 186.5433 291.5063 13.77768761399374
0 OPS 1509 (TRANSIT 10)
1 01864U 65109A   13291.69241910  .00000156  00000-0  13684-3 0  1605
2 01864 089.0744 328.6293 0111751 183.0268 314.1003 13.77769174399533
0 OPS 1509 (TRANSIT 10)
1 01864U 65109A   13292.70956149  .00000164  00000-0  14433-3 0  1618
2 01864 089.0744 328.5297 0111861 179.9645 319.0780 13.77769392399674
0 OPS 1509 (TRANSIT 10)
1 01864U 65109A   13293.72431961  .00000163  00000-0  14363-3 0  1623
2 01864 089.0744 328.4303 0111969 176.9076 312.2321 13.77769731399814
0 OPS 1509 (TRANSIT 10)
1 01864U 65109A   13294.74238624  .00000169  00000-0  14930-3 0  1634
2 01864 089.0743 328.3306 0112087 173.8329 321.8053 13.77770166399951
0 OPS 1509 (TRANSIT 10)
1 01864U 65109A   13296.10749470  .00000190  00000-0  16837-3 0  1645
2 01864 089.0742 328.1969 0112213 169.7497 252.6567 13.77770595400145
